MOLNIYA 2-9             
1 07276U 74026A   18061.85433351  .00000143  00000-0  31145-2 0  9993
2 07276  62.9082 126.1902 6827947 288.6697  12.4205  2.45098168210966
MOLNIYA 2-10            
1 07376U 74056A   18056.80291623  .00001156  00000-0 -79895-2 0  9990
2 07376  63.1822 265.9876 7207655 294.2979   9.0636  2.01072598318778
MOLNIYA 1-S             
1 07392U 74060A   18062.77235807 -.00000000  00000-0  00000-0 0  9995
2 07392   8.6797 304.3750 0006426 169.6151  28.9599  1.00204004103804
MOLNIYA 1-29            
1 07780U 75036A   18062.14190039  .00000605  00000-0  58629-4 0  9992
2 07780  61.7883  90.9244 7436343 277.2610  11.4894  2.00620252314206
MOLNIYA 2-13            
1 08015U 75063A   18062.06891961  .00009860 -64282-7  82806-3 0  9992
2 08015  61.7494  88.8625 7519456 276.4968  11.1295  2.01513230312533
MOLNIYA 2-14            
1 08195U 75081A   18062.93406878  .00001858  00000-0  77370-3 0  9995
2 08195  61.8782  57.2945 7509588 281.5939  10.0476  2.00928090311270
MOLNIYA 1-32            
1 08601U 76006A   18062.18850160 -.00001133  00000-0  93597-2 0  9994
2 08601  62.1776 172.9296 7171596 270.6884  15.3324  2.00042645 21366
MOLNIYA 2-17            
1 09829U 77010A   18061.95483068  .00001651  00000-0  36976-2 0  9998
2 09829  61.2944 187.9345 7363681 262.8333  16.4998  2.00725282300833
MOLNIYA 1-36            
1 09880U 77021A   18062.33438944  .00000998  00000-0  39824-2 0  9991
2 09880  61.5863 157.5510 7302906 271.4479  14.0802  2.00376042198019
MOLNIYA 3-7             
1 09941U 77032A   18061.32330481  .00000453  00000-0  39444-3 0  9991
2 09941  61.3132 160.1243 7403677 267.3426  14.5902  2.00777737296415
MOLNIYA 3-8             
1 10455U 77105A   18062.47696894 -.00000093  00000-0 -46661-2 0  9994
2 10455  62.0880 225.7088 7211643 270.6087  14.9659  2.00408888295702
MOLNIYA 1-40            
1 10925U 78055A   18062.53566099 -.00000700  00000-0 -33201-2 0  9992
2 10925  62.3628 255.1918 7246061 274.9242  13.3548  2.00594479291256
MOLNIYA 3-10            
1 11057U 78095A   18063.14824512  .00049084 -26002-7  28905-3 0  9998
2 11057  62.4984 290.2948 6100565 277.7034  21.2132  4.00393975319695
MOLNIYA 3-13            
1 11896U 80063A   18062.83608594 -.00000460  00000-0 -16014-4 0  9990
2 11896  62.6689 357.0236 7474385 268.9488  13.6421  2.00669325275715
MOLNIYA 1-49            
1 12156U 81009A   18062.34363913 -.00000975  00000-0  00000-0 0  9994
2 12156  63.8567  39.1375 7163765 247.5100 348.1680  2.05704587189280
MOLNIYA 1-52            
1 13012U 81123A   18062.61449736 -.00000889  00000-0 -42008-1 0  9991
2 13012  64.2711 130.9083 6829643 251.8287 346.5358  2.00775240265212
MOLNIYA 1-53            
1 13070U 82015A   18061.63493953  .00000637  00000-0  12626-2 0  9990
2 13070  62.4642 101.6103 7369249 265.4541 348.9008  2.00606141263795
MOLNIYA 3-20            
1 13875U 83015A   18062.87873470 -.00000908  00000-0 -16566-1 0  9996
2 13875  63.7050 195.0324 6749569 260.3064  63.9812  2.00578180192280
MOLNIYA 1-56            
1 13890U 83019A   18062.86101630 -.00000697  00000-0  00000-0 0  9997
2 13890  63.3327 221.8586 6893418 263.3207 345.1302  1.99859271255271
MOLNIYA 1-62            
1 15214U 84089A   18062.72059984  .00000337  00000-0  50550-2 0  9993
2 15214  62.8547 240.7831 7163268 263.5108  17.9608  1.97954612213247
MOLNIYA 1-63            
1 15429U 84124A   18062.66704693 -.00001270  00000-0  00000-0 0  9999
2 15429  64.0613 323.7503 6911674 271.4276  15.0541  2.00751261243323
MOLNIYA 3-24            
1 15738U 85040A   18062.20363764 -.00000069  00000-0 -11331-1 0  9996
2 15738  64.4068 338.0674 6537705 260.8673 166.3504  2.55627865263800
MOLNIYA 3-27            
1 16393U 85117A   18062.06388684  .00000102  00000-0  35731-1 0  9997
2 16393  64.7366 248.5088 6540170 269.9158 143.1660  2.12398064240905
MOLNIYA 1-69            
1 17078U 86089A   18062.20243626  .00000356  00000-0 -29424-1 0  9993
2 17078  64.3887 349.2318 6989055 272.2819 119.8604  2.00593136229386
MOLNIYA 3-31            
1 17328U 87008A   18058.12375951 -.00000296  00000-0 -63673-1 0  9994
2 17328  64.0946 293.5266 6913146 268.2932 341.4330  2.00574580224374
MOLNIYA 1-71            
1 18946U 88017A   18062.17099021  .00000219  00000-0 -48641-2 0  9996
2 18946  63.8531 300.8133 7039723 266.9748 346.5848  2.00576384219653
MOLNIYA 1-75            
1 19807U 89014A   18061.49093378 -.00000741  00000-0  73116-1 0  9998
2 19807  63.8440 110.5146 6853468 276.2078  15.9223  2.00461049212645
MOLNIYA 1-80            
1 21118U 91012A   18063.19526432 -.00000494  00000-0  10318+0 0  9996
2 21118  63.2722 152.3649 6826632 290.9324  11.8436  2.05247268198859
MOLNIYA 3-40            
1 21196U 91022A   18062.91071810  .00001270  00000-0  60158-1 0  9998
2 21196  63.4660 143.7208 6813801 288.9207  12.4402  2.03007111197852
MOLNIYA 1-81            
1 21426U 91043A   18062.33614653  .00000165  00000-0  00000-0 0  9992
2 21426  63.6621 167.7534 6771257 278.6179  15.7266  2.00588477195721
MOLNIYA 3-41            
1 21706U 91065A   18061.66155868  .00001070  00000-0 -91033-2 0  9995
2 21706  64.4691 340.3325 7048035 272.4687 112.6232  2.04339528194873
MOLNIYA 3-42            
1 22178U 92067A   18062.42952583 -.00000043  00000-0  00000-0 0  9997
2 22178  64.0387  52.3858 6902344 285.9035  12.6836  2.20435200 45633
MOLNIYA 1-86            
1 22671U 93035A   18063.41860295  .00000031  00000-0  10555-3 0  9994
2 22671  63.0939  63.1515 4856343 344.2769   4.7835  5.62575855264141
MOLNIYA 1-87            
1 22949U 93079A   18063.50531557 -.00001099  00000-0  30100-2 0  9999
2 22949  63.0594 276.6682 7281149 289.7652   9.5451  2.02860088177523
MOLNIYA 1-88            
1 23420U 94081A   18062.65279471  .00000029  00000-0  53241-3 0  9990
2 23420  63.5306 212.5156 6142427 300.4735  12.9114  3.34495036 61299
MOLNIYA 3-47            
1 23642U 95042A   18062.58924857 -.00000380  00000-0 -72688-2 0  9998
2 23642  62.9644 256.5900 7215697 288.9796  10.0039  2.01986979165391
MOLNIYA 1-90            
1 24960U 97054A   18062.35222872  .00000115  00000-0  17418-3 0  9995
2 24960  62.6676 199.3523 6489542 294.0622  12.8490  3.18679429158143
MOLNIYA 1-91            
1 25485U 98054A   18063.00769426  .00004116  00000-0  90666-3 0  9994
2 25485  62.0542  74.8939 7509951 276.0947 329.9465  2.00914202142348
MOLNIYA 3-50            
1 25847U 99036A   18062.44956176  .00000153  00000-0 -18495-2 0  9991
2 25847  62.1131 210.6054 7191830 268.7993  15.7630  2.00660774136670
